STARLINK-31701          
1 59582U 24076U   26068.24059664  .00050384  00000+0  18223-2 0  9993
2 59582  43.0036  11.5643 0001188 283.6526  76.4193 15.27682506106343
YAM-7                   
1 60504U 24149AN  26068.71799904  .00009009  00000+0  30984-3 0  9997
2 60504  97.3828 149.4631 0001973 296.5121  63.5918 15.30304554 86835
